{
  "type": "FeatureCollection",
  "features": [
    {
      "type": "Feature",
      "properties": {
        "norad_id": 38867,
        "name": "INTELSAT 23 (IS-23)",
        "group": "intelsat",
        "lat": -0.02572475067744674,
        "lon": -55.30263615839663,
        "alt_km": 35782.84986028971,
        "timestamp": "2025-12-27T17:24:57.061443+00:00",
        "meta_object_name": "INTELSAT 23 (IS-23)",
        "meta_object_id": "2012-057A",
        "meta_epoch": "2025-12-27T11:02:16.603296",
        "meta_mean_motion": 1.00272569,
        "meta_eccentricity": 7.24e-05,
        "meta_inclination": 0.0219,
        "meta_ra_of_asc_node": 82.5501,
        "meta_arg_of_pericenter": 226.6145,
        "meta_mean_anomaly": 259.6095,
        "meta_ephemeris_type": 0,
        "meta_classification_type": "U",
        "meta_norad_cat_id": 38867,
        "meta_element_set_no": 999,
        "meta_rev_at_epoch": 4823,
        "meta_bstar": 0,
        "meta_mean_motion_dot": -2.62e-06,
        "meta_mean_motion_ddot": 0,
        "tle_line1": "1 38867U 12057A   25361.45991439 -.00000262  00000+0  00000+0 0  9997",
        "tle_line2": "2 38867   0.0219  82.5501 0000724 226.6145 259.6095  1.00272569 48231"
      },
      "geometry": {
        "type": "Point",
        "coordinates": [
          -55.30263615839663,
          -0.02572475067744674
        ]
      }
    },
    {
      "type": "Feature",
      "properties": {
        "norad_id": 39360,
        "name": "FM-6",
        "group": "intelsat",
        "lat": -0.006368644435308867,
        "lon": -118.48834866521717,
        "alt_km": 35780.90464130979,
        "timestamp": "2025-12-27T17:24:57.061468+00:00",
        "meta_object_name": "FM-6",
        "meta_object_id": "2013-058A",
        "meta_epoch": "2025-12-25T23:15:38.712384",
        "meta_mean_motion": 1.00267622,
        "meta_eccentricity": 0.00031338,
        "meta_inclination": 0.0194,
        "meta_ra_of_asc_node": 74.6696,
        "meta_arg_of_pericenter": 105.3027,
        "meta_mean_anomaly": 147.4825,
        "meta_ephemeris_type": 0,
        "meta_classification_type": "U",
        "meta_norad_cat_id": 39360,
        "meta_element_set_no": 999,
        "meta_rev_at_epoch": 4433,
        "meta_bstar": 0,
        "meta_mean_motion_dot": 5e-08,
        "meta_mean_motion_ddot": 0,
        "tle_line1": "1 39360U 13058A   25359.96919806  .00000005  00000+0  00000+0 0  9993",
        "tle_line2": "2 39360   0.0194  74.6696 0003133 105.3027 147.4825  1.00267622 44334"
      },
      "geometry": {
        "type": "Point",
        "coordinates": [
          -118.48834866521717,
          -0.006368644435308867
        ]
      }
    },
    {
      "type": "Feature",
      "properties": {
        "norad_id": 40271,
        "name": "INTELSAT 30 (IS-30)",
        "group": "intelsat",
        "lat": -0.026929099945832154,
        "lon": -97.37072407169153,
        "alt_km": 35791.79207622363,
        "timestamp": "2025-12-27T17:24:57.061483+00:00",
        "meta_object_name": "INTELSAT 30 (IS-30)",
        "meta_object_id": "2014-062A",
        "meta_epoch": "2025-12-27T09:16:38.705376",
        "meta_mean_motion": 1.00271778,
        "meta_eccentricity": 0.0001349,
        "meta_inclination": 0.0134,
        "meta_ra_of_asc_node": 31.7565,
        "meta_arg_of_pericenter": 55.6618,
        "meta_mean_anomaly": 52.8063,
        "meta_ephemeris_type": 0,
        "meta_classification_type": "U",
        "meta_norad_cat_id": 40271,
        "meta_element_set_no": 999,
        "meta_rev_at_epoch": 507,
        "meta_bstar": 0,
        "meta_mean_motion_dot": -1.28e-06,
        "meta_mean_motion_ddot": 0,
        "tle_line1": "1 40271U 14062A   25361.38655909 -.00000128  00000+0  00000+0 0  9999",
        "tle_line2": "2 40271   0.0134  31.7565 0001349  55.6618  52.8063  1.00271778  5078"
      },
      "geometry": {
        "type": "Point",
        "coordinates": [
          -97.37072407169153,
          -0.026929099945832154
        ]
      }
    },
    {
      "type": "Feature",
      "properties": {
        "norad_id": 40333,
        "name": "DIRECTV 14",
        "group": "intelsat",
        "lat": -0.036470589041264254,
        "lon": -101.54345141716972,
        "alt_km": 35786.31201385146,
        "timestamp": "2025-12-27T17:24:57.061496+00:00",
        "meta_object_name": "DIRECTV 14",
        "meta_object_id": "2014-078B",
        "meta_epoch": "2025-12-27T09:06:20.204064",
        "meta_mean_motion": 1.00269426,
        "meta_eccentricity": 3.61e-05,
        "meta_inclination": 0.0194,
        "meta_ra_of_asc_node": 342.3374,
        "meta_arg_of_pericenter": 203.2124,
        "meta_mean_anomaly": 307.9183,
        "meta_ephemeris_type": 0,
        "meta_classification_type": "U",
        "meta_norad_cat_id": 40333,
        "meta_element_set_no": 999,
        "meta_rev_at_epoch": 4032,
        "meta_bstar": 0,
        "meta_mean_motion_dot": -1.03e-06,
        "meta_mean_motion_ddot": 0,
        "tle_line1": "1 40333U 14078B   25361.37940051 -.00000103  00000+0  00000+0 0  9992",
        "tle_line2": "2 40333   0.0194 342.3374 0000361 203.2124 307.9183  1.00269426 40329"
      },
      "geometry": {
        "type": "Point",
        "coordinates": [
          -101.54345141716972,
          -0.036470589041264254
        ]
      }
    },
    {
      "type": "Feature",
      "properties": {
        "norad_id": 40663,
        "name": "DIRECTV 15",
        "group": "intelsat",
        "lat": -0.02988443307785387,
        "lon": -105.22299732706662,
        "alt_km": 35787.86093875311,
        "timestamp": "2025-12-27T17:24:57.061508+00:00",
        "meta_object_name": "DIRECTV 15",
        "meta_object_id": "2015-026A",
        "meta_epoch": "2025-12-26T07:34:38.576064",
        "meta_mean_motion": 1.00269733,
        "meta_eccentricity": 3.61e-05,
        "meta_inclination": 0.018,
        "meta_ra_of_asc_node": 29.1854,
        "meta_arg_of_pericenter": 84.7041,
        "meta_mean_anomaly": 351.9356,
        "meta_ephemeris_type": 0,
        "meta_classification_type": "U",
        "meta_norad_cat_id": 40663,
        "meta_element_set_no": 999,
        "meta_rev_at_epoch": 3873,
        "meta_bstar": 0,
        "meta_mean_motion_dot": -8e-07,
        "meta_mean_motion_ddot": 0,
        "tle_line1": "1 40663U 15026A   25360.31572426 -.00000080  00000+0  00000+0 0  9996",
        "tle_line2": "2 40663   0.0180  29.1854 0000361  84.7041 351.9356  1.00269733 38737"
      },
      "geometry": {
        "type": "Point",
        "coordinates": [
          -105.22299732706662,
          -0.02988443307785387
        ]
      }
    },
    {
      "type": "Feature",
      "properties": {
        "norad_id": 40664,
        "name": "SKY MEXICO-1",
        "group": "intelsat",
        "lat": -0.025614731347377743,
        "lon": -81.08353811499721,
        "alt_km": 35775.414707613854,
        "timestamp": "2025-12-27T17:24:57.061520+00:00",
        "meta_object_name": "SKY MEXICO-1",
        "meta_object_id": "2015-026B",
        "meta_epoch": "2025-12-27T09:12:12.143232",
        "meta_mean_motion": 1.00271849,
        "meta_eccentricity": 0.0002565,
        "meta_inclination": 0.0094,
        "meta_ra_of_asc_node": 35.2634,
        "meta_arg_of_pericenter": 253.8572,
        "meta_mean_anomaly": 226.2839,
        "meta_ephemeris_type": 0,
        "meta_classification_type": "U",
        "meta_norad_cat_id": 40664,
        "meta_element_set_no": 999,
        "meta_rev_at_epoch": 3873,
        "meta_bstar": 0,
        "meta_mean_motion_dot": -2.12e-06,
        "meta_mean_motion_ddot": 0,
        "tle_line1": "1 40664U 15026B   25361.38347388 -.00000212  00000+0  00000+0 0  9999",
        "tle_line2": "2 40664   0.0094  35.2634 0002565 253.8572 226.2839  1.00271849 38733"
      },
      "geometry": {
        "type": "Point",
        "coordinates": [
          -81.08353811499721,
          -0.025614731347377743
        ]
      }
    },
    {
      "type": "Feature",
      "properties": {
        "norad_id": 40874,
        "name": "INTELSAT 34 (IS-34)",
        "group": "intelsat",
        "lat": -0.014820375061524919,
        "lon": -57.79769922002654,
        "alt_km": 35785.58475349467,
        "timestamp": "2025-12-27T17:24:57.061532+00:00",
        "meta_object_name": "INTELSAT 34 (IS-34)",
        "meta_object_id": "2015-039A",
        "meta_epoch": "2025-12-27T11:01:31.673568",
        "meta_mean_motion": 1.00275692,
        "meta_eccentricity": 6.08e-05,
        "meta_inclination": 0.0122,
        "meta_ra_of_asc_node": 318.914,
        "meta_arg_of_pericenter": 240.4135,
        "meta_mean_anomaly": 6.7535,
        "meta_ephemeris_type": 0,
        "meta_classification_type": "U",
        "meta_norad_cat_id": 40874,
        "meta_element_set_no": 999,
        "meta_rev_at_epoch": 3790,
        "meta_bstar": 0,
        "meta_mean_motion_dot": -2.63e-06,
        "meta_mean_motion_ddot": 0,
        "tle_line1": "1 40874U 15039A   25361.45939437 -.00000263  00000+0  00000+0 0  9992",
        "tle_line2": "2 40874   0.0122 318.9140 0000608 240.4135   6.7535  1.00275692 37906"
      },
      "geometry": {
        "type": "Point",
        "coordinates": [
          -57.79769922002654,
          -0.014820375061524919
        ]
      }
    }
  ]
}